STARLINK-31259          
1 59076U 24041C   26068.08745656 -.00001117  00000+0 -31083-4 0  9991
2 59076  43.0014 313.7493 0001253 278.0582  82.0128 15.27573060113130
VSP RF A1               
1 59135U 24043AP  26066.03073316  .00000577  00000+0  25199-4 0  9997
2 59135  97.5247 201.5379 0009431 234.6315 125.4042 15.26179596111403
